satname,norad_id,inclination_deg,eccentricity,mean_motion_rev_per_day,perigee_km,apogee_km,l1,l2
STARLINK-1255,45399,53.0431,0.0002454,15.49270186,417.19182073191405,420.52778676319303,1 45399U 20019AR  26055.53973065  .00077826  00000+0  13952-2 0  9999,2 45399  53.0431 165.9038 0002454 203.9520 156.1374 15.49270186328391
STARLINK-1260,45404,53.16,0.0001161,15.30201584,474.4146662587618,476.00601351108344,1 45404U 20019AW  26055.76539647 -.00001628  00000+0 -42865-4 0  9991,2 45404  53.1600 189.2719 0001161  81.1190 278.9942 15.30201584327990
STARLINK-1263,45405,53.1606,7.99e-05,15.30179078,474.7299516301873,475.82512727359153,1 45405U 20019AX  26055.75382247 -.00001531  00000+0 -39603-4 0  9992,2 45405  53.1606 189.3542 0000799  86.6487 273.4605 15.30179078327995
STARLINK-1265,45406,53.1606,0.0001478,15.30176269,474.2729909149375,476.2988627321065,1 45406U 20019AY  26055.76857671 -.00004813  00000+0 -15060-3 0  9998,2 45406  53.1606 189.3629 0001478  83.7124 276.4045 15.30176269327993
STARLINK-1278,45408,53.0456,0.000239,15.53028174,406.26868737002223,409.5124085379448,1 45408U 20019BA  26055.79399823  .00093245  00000+0  14580-2 0  9993,2 45408  53.0456 192.6958 0002390 132.8167 227.3043 15.53028174327951
STARLINK-1296,45412,53.1616,0.0001663,15.30177572,474.1423126168693,476.42175978831074,1 45412U 20019BE  26055.37035530  .00005352  00000+0  19283-3 0  9992,2 45412  53.1616 191.1157 0001663  62.4702 297.6468 15.30177572327936
STARLINK-1298,45413,53.0374,0.000733,15.89239453,299.51570268226624,309.3123224667015,1 45413U 20019BF  26055.91668981  .00175399  22148-4  60425-3 0  9990,2 45413  53.0374 119.1761 0007330 325.5099 285.7298 15.89239453  6032
STARLINK-1309,45414,53.0674,0.0002268,15.52125585,408.9814235997037,412.06075890989723,1 45414U 20019BG  26055.63190208  .00086857  00000+0  14046-2 0  9997,2 45414  53.0674 186.5628 0002268 357.8424   2.2574 15.52125585328004
STARLINK-1316,45415,53.1614,0.0001293,15.30183481,474.37824781940526,476.1505374195358,1 45415U 20019BH  26055.80755830 -.00001652  00000+0 -43695-4 0  9991,2 45415  53.1614 189.1325 0001293  87.5293 272.5856 15.30183481328023
STARLINK-1318,45416,53.0268,0.000877,16.10651533,239.24802680881476,250.86510832632848,1 45416U 20019BJ  26055.64853571  .01101707  75420-3  10964-2 0  9999,2 45416  53.0268 105.1672 0008770  13.8987 346.2286 16.10651533329169
STARLINK-1286,45417,53.0488,0.0001993,15.49778303,416.0197154030002,418.728406111818,1 45417U 20019BK  26055.64867228  .00033902  00000+0  60486-3 0  9997,2 45417  53.0488 193.3317 0001993  68.3763 291.7457 15.49778303328200
STARLINK-1308,45419,53.0536,6.56e-05,15.49103944,418.9001597062288,419.7919894856159,1 45419U 20019BM  26055.91668981  .00091858  00000+0  16520-2 0  9997,2 45419  53.0536 213.3638 0000656  64.7428 315.9197 15.49103944  5876
STARLINK-1329,45531,53.0501,0.0002607,15.53433533,404.94117201572317,408.4787912319407,1 45531U 20025A   26055.65674640  .00105018  00000+0  16149-2 0  9990,2 45531  53.0501 144.3389 0002607 229.0190 131.0594 15.53433533323426
STARLINK-1338,45532,53.0501,0.0004489,15.52109871,407.5194621900255,413.61436056165985,1 45532U 20025B   26055.57707123  .00090942  00000+0  14700-2 0  9995,2 45532  53.0501 147.9670 0004489 291.4306  68.6224 15.52109871323363
STARLINK-1350,45535,53.0717,0.0001411,15.35703678,457.8664796448702,459.79587206409633,1 45535U 20025E   26055.51618999  .00011639  00000+0  34073-3 0  9996,2 45535  53.0717  94.9936 0001411  55.4411 304.6724 15.35703678324138
STARLINK-1362,45538,53.1605,0.0001278,15.29937669,475.12249590667307,476.8744129288225,1 45538U 20025H   26055.72367706  .00050364  00000+0  17149-2 0  9991,2 45538  53.1605 161.2226 0001278 108.2169 251.8971 15.29937669323190
STARLINK-1368,45540,53.1601,0.0001198,15.30181768,474.4484693259092,476.0905455250886,1 45540U 20025K   26055.53724848 -.00000396  00000+0 -12539-5 0  9990,2 45540  53.1601 162.4215 0001198  81.9003 278.2134 15.30181768323158
STARLINK-1371,45542,53.0508,0.0002152,15.4479438,430.51677515487427,433.4478505071165,1 45542U 20025M   26055.75293706  .00079892  00000+0  16710-2 0  9997,2 45542  53.0508 151.1111 0002152 239.1346 120.9448 15.44794380323339
STARLINK-1372,45543,53.1618,0.0001031,15.30193157,474.52891875510704,475.9420841649089,1 45543U 20025N   26055.70995969  .00000676  00000+0  34951-4 0  9996,2 45543  53.1618 161.3131 0001031  86.7664 273.3454 15.30193157322285
STARLINK-1373,45544,53.0504,0.0004589,15.48479448,418.0533479170117,424.2937551412042,1 45544U 20025P   26055.91668981  .00008963  00000+0  17392-3 0  9997,2 45544  53.0504 150.2130 0004589 304.8333   3.5064 15.48479448  5932
STARLINK-1294,45551,53.0276,0.0004696,16.07779188,249.8286196017698,256.0565295382048,1 45551U 20025W   26055.92218426  .00992896  56207-3  11926-2 0  9998,2 45551  53.0276  40.2343 0004696  80.4578 279.6985 16.07779188324906
STARLINK-1327,45555,53.0477,0.0005042,15.51243503,409.6701937045482,416.5184713802837,1 45555U 20025AA  26055.58496519  .00080426  00000+0  13435-2 0  9995,2 45555  53.0477 129.7570 0005042   2.9190 357.1847 15.51243503323614
STARLINK-1356,45564,53.0522,0.0005091,15.43229189,433.11684897443956,440.0556001616942,1 45564U 20025AK  26055.59006087  .00053033  00000+0  11763-2 0  9999,2 45564  53.0522 136.1330 0005091 348.2200  11.8685 15.43229189323522
STARLINK-1357,45565,53.0539,0.0002866,15.52622024,407.1287185231895,411.0191478300858,1 45565U 20025AL  26055.53043149  .00095956  00000+0  15217-2 0  9992,2 45565  53.0539 101.5319 0002866  18.7112 341.4002 15.52622024324017
STARLINK-1361,45567,53.0511,0.0007226,15.45217325,425.8194862689934,435.6596747031117,1 45567U 20025AN  26055.82832868  .00069318  00000+0  14311-2 0  9997,2 45567  53.0511 135.2879 0007226 344.3679  15.7103 15.45217325323563
STARLINK-1363,45568,53.0445,0.0008213,15.73676403,342.87576503983655,353.9247751597022,1 45568U 20025AP  26055.43600288  .00082952  00000+0  57662-3 0  9990,2 45568  53.0445 103.7527 0008213   8.7502 351.3658 15.73676403323968
STARLINK-1366,45569,53.0439,0.0008218,15.73008071,344.77599345986073,355.8348614336128,1 45569U 20025AQ  26055.50862790  .00077959  00000+0  55823-3 0  9995,2 45569  53.0439 104.0971 0008218   6.6595 353.4530 15.73008071323965
STARLINK-1376,45570,53.1608,0.0001346,15.29359198,476.80390347655884,478.6495019853337,1 45570U 20025AR  26055.58380201  .00001391  00000+0  60514-4 0  9998,2 45570  53.1608 138.6023 0001346  94.3529 265.7625 15.29359198323491
STARLINK-1320,45572,53.0495,0.0007914,15.66522936,363.5227911889224,374.2019417861984,1 45572U 20025AT  26055.91668981  .00197242  00000+0  18135-2 0  9992,2 45572  53.0495  48.6536 0007914  11.3271 284.4304 15.66522936  5981
STARLINK-1321,45573,53.0499,0.0003521,15.45884298,426.38426036117835,431.17769200000384,1 45573U 20025AU  26055.45061876  .00032545  00000+0  66496-3 0  9990,2 45573  53.0499 121.7368 0003521 347.8982  12.1938 15.45884298323417
STARLINK-1331,45578,53.0541,0.000298,15.45984817,426.45754488692273,430.51429214635755,1 45578U 20025AZ  26055.78092778  .00065950  00000+0  13283-2 0  9997,2 45578  53.0541 126.8259 0002980  39.8886 320.2339 15.45984817323689
STARLINK-1333,45580,53.1601,0.0001194,15.30185955,474.43871033419146,476.07530082272297,1 45580U 20025BB  26055.49976991 -.00003089  00000+0 -92254-4 0  9990,2 45580  53.1601 139.0739 0001194  82.9271 277.1866 15.30185955323485
STARLINK-1335,45581,53.0843,5.61e-05,15.1441175,522.3778741570623,523.1521553631183,1 45581U 20025BC  26055.91668981  .00050823  00000+0  27321-2 0  9992,2 45581  53.0843 133.8650 0000561  95.9292 273.0642 15.14411750  5831
STARLINK-1337,45582,53.0538,0.0003212,15.55746568,397.806183985248,402.16044847639387,1 45582U 20025BD  26055.65432002  .00081235  00000+0  11529-2 0  9991,2 45582  53.0538 124.9599 0003212  40.2748 319.8500 15.55746568323682
STARLINK-1347,45586,53.0473,0.0005949,15.51294579,408.90525044860624,416.9852801278457,1 45586U 20025BH  26055.42182762  .00092769  00000+0  15430-2 0  9994,2 45586  53.0473  93.4133 0005949 357.7626   2.3355 15.51294579324104
STARLINK-1364,45589,53.0521,0.0006241,15.47085114,421.0122605305396,429.50425849346266,1 45589U 20025BL  26055.58376142  .00068655  00000+0  13299-2 0  9999,2 45589  53.0521 125.9224 0006241   6.2562 353.8522 15.47085114323662
STARLINK-1365,45590,53.0517,0.0001993,15.43711112,433.80995752745184,436.52574084033586,1 45590U 20025BM  26055.53157634  .00024018  00000+0  53132-3 0  9995,2 45590  53.0517 156.1425 0001993 346.9302  13.1652 15.43711112323258
STARLINK-1443,45660,53.103,8.58e-05,15.18422334,510.01711202755905,511.1992206981058,1 45660U 20035D   26055.91668981  .00057565  00000+0  27563-2 0  9999,2 45660  53.1030 123.7012 0000858 140.6323 173.8550 15.18422334  5839
STARLINK-1446,45663,53.0249,8.37e-05,15.42247708,438.90652756409145,440.04779617478926,1 45663U 20035G   26055.39957765  .00018224  00000+0  42596-3 0  9998,2 45663  53.0249  62.4755 0000837 205.0168 155.0796 15.42247708317620
STARLINK-1448,45665,53.0519,0.0006544,15.49533025,413.6437048326916,422.53860824396907,1 45665U 20035J   26055.63297013  .00076209  00000+0  13532-2 0  9994,2 45665  53.0519 115.4611 0006544  26.0946 334.0391 15.49533025316893
STARLINK-1451,45668,53.051,9.42e-05,15.09332867,537.5857792260895,538.8888241445275,1 45668U 20035M   26055.57258058  .00019902  00000+0  12480-2 0  9994,2 45668  53.0510 125.2484 0000942 311.3821  48.7089 15.09332867316768
STARLINK-1452,45669,53.0343,0.0007962,15.42708842,432.6914142919759,443.54561957714213,1 45669U 20035N   26055.53862215  .00063695  00000+0  14330-2 0  9991,2 45669  53.0343  84.2766 0007962   2.4682 357.6360 15.42708842317337
STARLINK-1453,45670,53.0496,0.0008519,15.49494975,412.4126150782058,423.99221817625494,1 45670U 20035P   26055.43089310  .00027458  00000+0  49615-3 0  9991,2 45670  53.0496  77.0320 0008519 351.5400   8.5463 15.49494975317319
